[{"OBJECT_NAME":"STARLINK-5318","OBJECT_ID":"2023-010AM","EPOCH":"2026-03-09T22:55:02.600544","MEAN_MOTION":14.98346991,"ECCENTRICITY":0.00032838,"INCLINATION":70.0003,"RA_OF_ASC_NODE":23.5945,"ARG_OF_PERICENTER":269.8182,"MEAN_ANOMALY":90.26,"EPHEMERIS_TYPE":0,"CLASSIFICATION_TYPE":"U","NORAD_CAT_ID":55304,"ELEMENT_SET_NO":999,"REV_AT_EPOCH":17331,"BSTAR":0.00029373433,"MEAN_MOTION_DOT":3.415e-5,"MEAN_MOTION_DDOT":0},{"OBJECT_NAME":"TIROS 5","OBJECT_ID":"1962-025A","EPOCH":"2026-03-09T18:19:03.462528","MEAN_MOTION":14.60548226,"ECCENTRICITY":0.0188246,"INCLINATION":58.0885,"RA_OF_ASC_NODE":225.1954,"ARG_OF_PERICENTER":128.0206,"MEAN_ANOMALY":233.7985,"EPHEMERIS_TYPE":0,"CLASSIFICATION_TYPE":"U","NORAD_CAT_ID":309,"ELEMENT_SET_NO":999,"REV_AT_EPOCH":36730,"BSTAR":0.00024813109,"MEAN_MOTION_DOT":1.341e-5,"MEAN_MOTION_DDOT":0}]
